ONEWEB-0267             
1 48985U 21060U   24157.86642197 -.00000014  00000+0 -69082-4 0  9990
2 48985  87.9112  16.3492 0002180  91.6642 268.4738 13.16592809142041
ONEWEB-0268             
1 48986U 21060V   24157.83475392  .00000108  00000+0  24910-3 0  9991
2 48986  87.9114  16.3618 0001841  89.0833 271.0509 13.16593762142304
ONEWEB-0269             
1 48987U 21060W   24157.89175480  .00000127  00000+0  29974-3 0  9999
2 48987  87.9114  16.3755 0001743  85.8769 274.2561 13.16592405142081
ONEWEB-0271             
1 48989U 21060Y   24157.89651329  .00000131  00000+0  30874-3 0  9998
2 48989  87.9113  16.3344 0002219  88.6852 271.4533 13.16594792142123
ONEWEB-0272             
1 48990U 21060Z   24157.84267339  .00000075  00000+0  16225-3 0  9990
2 48990  87.9116  16.3736 0002068  89.5294 270.6074 13.16593007142067
ONEWEB-0274             
1 48992U 21060AB  24157.89017438  .00000050  00000+0  97109-4 0  9994
2 48992  87.9121  16.3639 0001906 101.9499 258.1846 13.16593130142080
